COSMOS 2426 (717)       
1 29671U 06062B   19362.11158931 -.00000001  00000-0  10000-3 0  9995
2 29671  65.0344 273.7377 0019848 174.6309  66.4879  2.12962120101226
COSMOS 2433 (720)       
1 32275U 07052A   19362.10788711 -.00000057  00000-0  10000-3 0  9994
2 32275  65.9242  34.6665 0005204 249.2703  41.1375  2.13104421 94739
COSMOS 2432 (719)       
1 32276U 07052B   19362.17080373 -.00000057  00000-0  10000-3 0  9991
2 32276  65.9370  34.7492 0010864 317.9614 331.2963  2.13103608 94735
COSMOS 2434 (721)       
1 32393U 07065A   19361.60727343  .00000001  00000-0  00000+0 0  9990
2 32393  64.6405 272.3515 0002211  82.7322  71.0309  2.13103012 93434
COSMOS 2436 (723)       
1 32395U 07065C   19362.43390269 -.00000001  00000-0  10000-3 0  9993
2 32395  64.6497 272.3721 0015451 338.1131 201.2523  2.13280887 93387
COSMOS 2456 (730)       
1 36111U 09070A   19362.44446244  .00000033  00000-0  00000+0 0  9996
2 36111  64.2136 151.9794 0002642 354.2447 255.1417  2.13102817 78112
COSMOS 2457 (733)       
1 36112U 09070B   19362.42500601  .00000032  00000-0  00000+0 0  9992
2 36112  64.1960 151.8782 0006834 148.2751 210.2846  2.13101433 78110
COSMOS 2459 (731)       
1 36400U 10007A   19362.30605141 -.00000058  00000-0  10000-3 0  9990
2 36400  65.8289  33.6523 0025122 344.5820 312.6930  2.13105089 76469
COSMOS 2461 (735)       
1 36401U 10007B   19361.75416736 -.00000056  00000-0  10000-3 0  9997
2 36401  65.8213  33.6435 0004588  64.9419  78.9992  2.13101953 76454
COSMOS 2460 (732)       
1 36402U 10007C   19362.44895707 -.00000059  00000-0  10000-3 0  9997
2 36402  65.8112  33.5801 0002290 242.0331 114.3931  2.13101398 76461
COSMOS 2464 (736)       
1 37139U 10041C   19361.37633220  .00000001  00000-0  00000-0 0  9996
2 37139  64.2419 271.8850 0026551   9.0961 192.3712  2.13100718 72519
COSMOS 2474 (742)       
1 37829U 11055A   19361.83729870  .00000030  00000-0  00000+0 0  9997
2 37829  64.5343 152.9537 0007916 240.3272 118.7855  2.13101843 64098
COSMOS 2476 (744)       
1 37867U 11064A   19362.10086899  .00000031  00000-0  00000+0 0  9998
2 37867  64.5140 152.9920 0017478 233.1662  14.3371  2.13101882 63454
COSMOS 2477 (745)       
1 37868U 11064B   19361.83112652  .00000030  00000-0  00000+0 0  9994
2 37868  64.5226 153.0561 0015069 233.8051 345.3604  2.13101702 63408
COSMOS 2475 (743)       
1 37869U 11064C   19361.59640065  .00000029  00000-0  00000+0 0  9990
2 37869  64.5304 153.0639 0018550 260.2549  96.1086  2.13101894 63403
COSMOS 2485 (747)       
1 39155U 13019A   19362.51122076  .00000035  00000-0  00000+0 0  9999
2 39155  64.6830 153.2101 0018142 228.3147  18.6569  2.13101863 51936
COSMOS 2492 (754)       
1 39620U 14012A   19362.22522953 -.00000058  00000-0  10000-3 0  9997
2 39620  65.7019  33.3940 0014156 317.2118 105.4451  2.13103350 44884
COSMOS 2500 (755)       
1 40001U 14032A   19361.59106520 -.00000056  00000-0  00000-0 0  9995
2 40001  65.6418  33.3436 0008271 216.3251 300.7634  2.13102505 43084
COSMOS 2501 (702K)      
1 40315U 14075A   19361.43530102 -.00000001  00000-0  00000+0 0  9999
2 40315  63.9598 272.8934 0015989 210.9571 343.0044  2.13098479 39482
COSMOS 2514 (751)       
1 41330U 16008A   19361.76599837 -.00000058  00000-0  00000-0 0  9994
2 41330  65.4449  33.2537 0011833 221.0912 252.2938  2.13103056 30253
COSMOS 2516 (753)       
1 41554U 16032A   19362.11457936 -.00000001  00000-0  00000+0 0  9999
2 41554  64.1833 272.8924 0012358 224.0572  47.3859  2.13101757 27867
COSMOS 2522 (752)       
1 42939U 17055A   19361.36264839 -.00000000  00000-0  00000-0 0  9997
2 42939  64.4160 273.0473 0007915 255.6040  25.5196  2.13102047 17602
COSMOS 2527 (756)       
1 43508U 18053A   19362.16739361  .00000032  00000-0  00000+0 0  9998
2 43508  64.8465 153.0327 0005884 214.2259 355.8343  2.13102590 11912
COSMOS 2529 (757)       
1 43687U 18086A   19362.55032054 -.00000002  00000-0  00000+0 0  9998
2 43687  64.6279 273.0777 0010736 276.1031 151.8143  2.13102074  8948
COSMOS 2534 (758)       
1 44299U 19030A   19361.71155608  .00000000  00000-0  00000-0 0  9994
2 44299  64.6964 272.9093 0014228 292.1327 347.4431  2.13101939  4560
